<?xml version="1.0" encoding="UTF-8"?>
<ndm xmlns:xsi="http://www.w3.org/2001/XMLSchema-instance" xsi:noNamespaceSchemaLocation="https://sanaregistry.org/r/ndmxml_unqualified/ndmxml-2.0.0-master-2.0.xsd">
<omm id="CCSDS_OMM_VERS" version="2.0">
<header><CREATION_DATE/><ORIGINATOR/></header><body><segment><metadata><OBJECT_NAME>ONEWEB-0558</OBJECT_NAME><OBJECT_ID>2023-043P</OBJECT_ID><CENTER_NAME>EARTH</CENTER_NAME><REF_FRAME>TEME</REF_FRAME><TIME_SYSTEM>UTC</TIME_SYSTEM><MEAN_ELEMENT_THEORY>SGP4</MEAN_ELEMENT_THEORY></metadata><data><meanElements><EPOCH>2024-09-30T19:06:03.453120</EPOCH><MEAN_MOTION>13.21825605</MEAN_MOTION><ECCENTRICITY>.0002345</ECCENTRICITY><INCLINATION>87.9371</INCLINATION><RA_OF_ASC_NODE>8.3203</RA_OF_ASC_NODE><ARG_OF_PERICENTER>105.3060</ARG_OF_PERICENTER><MEAN_ANOMALY>254.8333</MEAN_ANOMALY></meanElements><tleParameters><EPHEMERIS_TYPE>0</EPHEMERIS_TYPE><CLASSIFICATION_TYPE>U</CLASSIFICATION_TYPE><NORAD_CAT_ID>56059</NORAD_CAT_ID><ELEMENT_SET_NO>999</ELEMENT_SET_NO><REV_AT_EPOCH>7666</REV_AT_EPOCH><BSTAR>.14504E-3</BSTAR><MEAN_MOTION_DOT>.73E-6</MEAN_MOTION_DOT><MEAN_MOTION_DDOT>0</MEAN_MOTION_DDOT></tleParameters></data></segment></body></omm>
<omm id="CCSDS_OMM_VERS" version="2.0">
<header><CREATION_DATE/><ORIGINATOR/></header><body><segment><metadata><OBJECT_NAME>ONEWEB-0559</OBJECT_NAME><OBJECT_ID>2023-043Q</OBJECT_ID><CENTER_NAME>EARTH</CENTER_NAME><REF_FRAME>TEME</REF_FRAME><TIME_SYSTEM>UTC</TIME_SYSTEM><MEAN_ELEMENT_THEORY>SGP4</MEAN_ELEMENT_THEORY></metadata><data><meanElements><EPOCH>2024-09-30T06:07:07.226400</EPOCH><MEAN_MOTION>13.21823200</MEAN_MOTION><ECCENTRICITY>.0002129</ECCENTRICITY><INCLINATION>87.9368</INCLINATION><RA_OF_ASC_NODE>8.4237</RA_OF_ASC_NODE><ARG_OF_PERICENTER>115.8863</ARG_OF_PERICENTER><MEAN_ANOMALY>244.2491</MEAN_ANOMALY></meanElements><tleParameters><EPHEMERIS_TYPE>0</EPHEMERIS_TYPE><CLASSIFICATION_TYPE>U</CLASSIFICATION_TYPE><NORAD_CAT_ID>56060</NORAD_CAT_ID><ELEMENT_SET_NO>999</ELEMENT_SET_NO><REV_AT_EPOCH>7569</REV_AT_EPOCH><BSTAR>.16938E-3</BSTAR><MEAN_MOTION_DOT>.83E-6</MEAN_MOTION_DOT><MEAN_MOTION_DDOT>0</MEAN_MOTION_DDOT></tleParameters></data></segment></body></omm>
<omm id="CCSDS_OMM_VERS" version="2.0">
<header><CREATION_DATE/><ORIGINATOR/></header><body><segment><metadata><OBJECT_NAME>ONEWEB-0566</OBJECT_NAME><OBJECT_ID>2023-043R</OBJECT_ID><CENTER_NAME>EARTH</CENTER_NAME><REF_FRAME>TEME</REF_FRAME><TIME_SYSTEM>UTC</TIME_SYSTEM><MEAN_ELEMENT_THEORY>SGP4</MEAN_ELEMENT_THEORY></metadata><data><meanElements><EPOCH>2024-09-30T05:58:03.156960</EPOCH><MEAN_MOTION>13.21824180</MEAN_MOTION><ECCENTRICITY>.0002501</ECCENTRICITY><INCLINATION>87.9370</INCLINATION><RA_OF_ASC_NODE>8.4250</RA_OF_ASC_NODE><ARG_OF_PERICENTER>107.1668</ARG_OF_PERICENTER><MEAN_ANOMALY>252.9740</MEAN_ANOMALY></meanElements><tleParameters><EPHEMERIS_TYPE>0</EPHEMERIS_TYPE><CLASSIFICATION_TYPE>U</CLASSIFICATION_TYPE><NORAD_CAT_ID>56061</NORAD_CAT_ID><ELEMENT_SET_NO>999</ELEMENT_SET_NO><REV_AT_EPOCH>7567</REV_AT_EPOCH><BSTAR>.33444E-4</BSTAR><MEAN_MOTION_DOT>.27E-6</MEAN_MOTION_DOT><MEAN_MOTION_DDOT>0</MEAN_MOTION_DDOT></tleParameters></data></segment></body></omm>
<omm id="CCSDS_OMM_VERS" version="2.0">
<header><CREATION_DATE/><ORIGINATOR/></header><body><segment><metadata><OBJECT_NAME>ONEWEB-0568</OBJECT_NAME><OBJECT_ID>2023-043S</OBJECT_ID><CENTER_NAME>EARTH</CENTER_NAME><REF_FRAME>TEME</REF_FRAME><TIME_SYSTEM>UTC</TIME_SYSTEM><MEAN_ELEMENT_THEORY>SGP4</MEAN_ELEMENT_THEORY></metadata><data><meanElements><EPOCH>2024-09-30T05:45:29.698848</EPOCH><MEAN_MOTION>13.16596869</MEAN_MOTION><ECCENTRICITY>.0001813</ECCENTRICITY><INCLINATION>87.9167</INCLINATION><RA_OF_ASC_NODE>353.2337</RA_OF_ASC_NODE><ARG_OF_PERICENTER>92.7634</ARG_OF_PERICENTER><MEAN_ANOMALY>267.3704</MEAN_ANOMALY></meanElements><tleParameters><EPHEMERIS_TYPE>0</EPHEMERIS_TYPE><CLASSIFICATION_TYPE>U</CLASSIFICATION_TYPE><NORAD_CAT_ID>56062</NORAD_CAT_ID><ELEMENT_SET_NO>999</ELEMENT_SET_NO><REV_AT_EPOCH>7674</REV_AT_EPOCH><BSTAR>-.14041E-4</BSTAR><MEAN_MOTION_DOT>.7E-7</MEAN_MOTION_DOT><MEAN_MOTION_DDOT>0</MEAN_MOTION_DDOT></tleParameters></data></segment></body></omm>
<omm id="CCSDS_OMM_VERS" version="2.0">
<header><CREATION_DATE/><ORIGINATOR/></header><body><segment><metadata><OBJECT_NAME>ONEWEB-0574</OBJECT_NAME><OBJECT_ID>2023-043T</OBJECT_ID><CENTER_NAME>EARTH</CENTER_NAME><REF_FRAME>TEME</REF_FRAME><TIME_SYSTEM>UTC</TIME_SYSTEM><MEAN_ELEMENT_THEORY>SGP4</MEAN_ELEMENT_THEORY></metadata><data><meanElements><EPOCH>2024-09-30T16:42:59.321088</EPOCH><MEAN_MOTION>13.21825554</MEAN_MOTION><ECCENTRICITY>.0001957</ECCENTRICITY><INCLINATION>87.9367</INCLINATION><RA_OF_ASC_NODE>8.3288</RA_OF_ASC_NODE><ARG_OF_PERICENTER>98.2740</ARG_OF_PERICENTER><MEAN_ANOMALY>261.8616</MEAN_ANOMALY></meanElements><tleParameters><EPHEMERIS_TYPE>0</EPHEMERIS_TYPE><CLASSIFICATION_TYPE>U</CLASSIFICATION_TYPE><NORAD_CAT_ID>56063</NORAD_CAT_ID><ELEMENT_SET_NO>999</ELEMENT_SET_NO><REV_AT_EPOCH>7668</REV_AT_EPOCH><BSTAR>.37544E-3</BSTAR><MEAN_MOTION_DOT>.168E-5</MEAN_MOTION_DOT><MEAN_MOTION_DDOT>0</MEAN_MOTION_DDOT></tleParameters></data></segment></body></omm>
<omm id="CCSDS_OMM_VERS" version="2.0">
<header><CREATION_DATE/><ORIGINATOR/></header><body><segment><metadata><OBJECT_NAME>ONEWEB-0575</OBJECT_NAME><OBJECT_ID>2023-043U</OBJECT_ID><CENTER_NAME>EARTH</CENTER_NAME><REF_FRAME>TEME</REF_FRAME><TIME_SYSTEM>UTC</TIME_SYSTEM><MEAN_ELEMENT_THEORY>SGP4</MEAN_ELEMENT_THEORY></metadata><data><meanElements><EPOCH>2024-09-30T05:36:23.742432</EPOCH><MEAN_MOTION>13.16594838</MEAN_MOTION><ECCENTRICITY>.0001334</ECCENTRICITY><INCLINATION>87.9169</INCLINATION><RA_OF_ASC_NODE>353.2457</RA_OF_ASC_NODE><ARG_OF_PERICENTER>102.4387</ARG_OF_PERICENTER><MEAN_ANOMALY>257.6893</MEAN_ANOMALY></meanElements><tleParameters><EPHEMERIS_TYPE>0</EPHEMERIS_TYPE><CLASSIFICATION_TYPE>U</CLASSIFICATION_TYPE><NORAD_CAT_ID>56064</NORAD_CAT_ID><ELEMENT_SET_NO>999</ELEMENT_SET_NO><REV_AT_EPOCH>7673</REV_AT_EPOCH><BSTAR>.29412E-3</BSTAR><MEAN_MOTION_DOT>.125E-5</MEAN_MOTION_DOT><MEAN_MOTION_DDOT>0</MEAN_MOTION_DDOT></tleParameters></data></segment></body></omm>
<omm id="CCSDS_OMM_VERS" version="2.0">
<header><CREATION_DATE/><ORIGINATOR/></header><body><segment><metadata><OBJECT_NAME>ONEWEB-0576</OBJECT_NAME><OBJECT_ID>2023-043V</OBJECT_ID><CENTER_NAME>EARTH</CENTER_NAME><REF_FRAME>TEME</REF_FRAME><TIME_SYSTEM>UTC</TIME_SYSTEM><MEAN_ELEMENT_THEORY>SGP4</MEAN_ELEMENT_THEORY></metadata><data><meanElements><EPOCH>2024-09-30T05:09:00.562176</EPOCH><MEAN_MOTION>13.16596594</MEAN_MOTION><ECCENTRICITY>.0001576</ECCENTRICITY><INCLINATION>87.9167</INCLINATION><RA_OF_ASC_NODE>353.2443</RA_OF_ASC_NODE><ARG_OF_PERICENTER>91.9265</ARG_OF_PERICENTER><MEAN_ANOMALY>268.2046</MEAN_ANOMALY></meanElements><tleParameters><EPHEMERIS_TYPE>0</EPHEMERIS_TYPE><CLASSIFICATION_TYPE>U</CLASSIFICATION_TYPE><NORAD_CAT_ID>56065</NORAD_CAT_ID><ELEMENT_SET_NO>999</ELEMENT_SET_NO><REV_AT_EPOCH>7672</REV_AT_EPOCH><BSTAR>.17393E-3</BSTAR><MEAN_MOTION_DOT>.79E-6</MEAN_MOTION_DOT><MEAN_MOTION_DDOT>0</MEAN_MOTION_DDOT></tleParameters></data></segment></body></omm>
<omm id="CCSDS_OMM_VERS" version="2.0">
<header><CREATION_DATE/><ORIGINATOR/></header><body><segment><metadata><OBJECT_NAME>ONEWEB-0577</OBJECT_NAME><OBJECT_ID>2023-043W</OBJECT_ID><CENTER_NAME>EARTH</CENTER_NAME><REF_FRAME>TEME</REF_FRAME><TIME_SYSTEM>UTC</TIME_SYSTEM><MEAN_ELEMENT_THEORY>SGP4</MEAN_ELEMENT_THEORY></metadata><data><meanElements><EPOCH>2024-09-30T05:18:08.885952</EPOCH><MEAN_MOTION>13.16594829</MEAN_MOTION><ECCENTRICITY>.0001114</ECCENTRICITY><INCLINATION>87.9167</INCLINATION><RA_OF_ASC_NODE>353.2428</RA_OF_ASC_NODE><ARG_OF_PERICENTER>108.6965</ARG_OF_PERICENTER><MEAN_ANOMALY>251.4286</MEAN_ANOMALY></meanElements><tleParameters><EPHEMERIS_TYPE>0</EPHEMERIS_TYPE><CLASSIFICATION_TYPE>U</CLASSIFICATION_TYPE><NORAD_CAT_ID>56066</NORAD_CAT_ID><ELEMENT_SET_NO>999</ELEMENT_SET_NO><REV_AT_EPOCH>7675</REV_AT_EPOCH><BSTAR>.18373E-3</BSTAR><MEAN_MOTION_DOT>.83E-6</MEAN_MOTION_DOT><MEAN_MOTION_DDOT>0</MEAN_MOTION_DDOT></tleParameters></data></segment></body></omm>

</ndm>
