ONEWEB-0558             
1 56059U 23043P   24274.79587330  .00000073  00000+0  14504-3 0  9994
2 56059  87.9371   8.3203 0002345 105.3060 254.8333 13.21825605 76663
ONEWEB-0559             
1 56060U 23043Q   24274.25494475  .00000083  00000+0  16938-3 0  9998
2 56060  87.9368   8.4237 0002129 115.8863 244.2491 13.21823200 75695
ONEWEB-0566             
1 56061U 23043R   24274.24864765  .00000027  00000+0  33444-4 0  9991
2 56061  87.9370   8.4250 0002501 107.1668 252.9740 13.21824180 75674
ONEWEB-0568             
1 56062U 23043S   24274.23992707  .00000007  00000+0 -14041-4 0  9990
2 56062  87.9167 353.2337 0001813  92.7634 267.3704 13.16596869 76746
ONEWEB-0574             
1 56063U 23043T   24274.69651992  .00000168  00000+0  37544-3 0  9998
2 56063  87.9367   8.3288 0001957  98.2740 261.8616 13.21825554 76686
ONEWEB-0575             
1 56064U 23043U   24274.23360813  .00000125  00000+0  29412-3 0  9996
2 56064  87.9169 353.2457 0001334 102.4387 257.6893 13.16594838 76739
ONEWEB-0576             
1 56065U 23043V   24274.21458984  .00000079  00000+0  17393-3 0  9995
2 56065  87.9167 353.2443 0001576  91.9265 268.2046 13.16596594 76726
ONEWEB-0577             
1 56066U 23043W   24274.22093618  .00000083  00000+0  18373-3 0  9990
2 56066  87.9167 353.2428 0001114 108.6965 251.4286 13.16594829 76753
